{
  "type": "FeatureCollection",
  "generator": "overpass-ide",
  "copyright": "The data included in this document is from www.openstreetmap.org. The data is made available under ODbL.",
  "timestamp": "2018-01-14T06:33:01Z",
  "features": [
    {
      "type": "Feature",
      "properties": {
        "@id": "way/28223847",
        "addr:city": "Brossard",
        "addr:housenumber": "9320",
        "addr:postcode": "J4Y 0B3",
        "addr:street": "Boulevard Leduc",
        "building": "yes",
        "level": "1",
        "name": "Indigo",
        "shop": "books",
        "@geometry": "center"
      },
      "geometry": {
        "type": "Point",
        "coordinates": [
          -73.4365069,
          45.4443284
        ]
      },
      "id": "way/28223847"
    },
    {
      "type": "Feature",
      "properties": {
        "@id": "way/30176570",
        "building": "yes",
        "building:levels": "3",
        "learning": "university",
        "name": "McGill Bookstore",
        "name:fr": "Librairie",
        "shop": "books",
        "@geometry": "center"
      },
      "geometry": {
        "type": "Point",
        "coordinates": [
          -73.576817,
          45.5028504
        ]
      },
      "id": "way/30176570"
    },
    {
      "type": "Feature",
      "properties": {
        "@id": "way/34931956",
        "addr:city": "Brossard",
        "addr:housenumber": "6925",
        "addr:postcode": "J4Z 1A7",
        "addr:street": "Boulevard Taschereau",
        "building": "yes",
        "name": "Renaud-Bray",
        "shop": "books",
        "@geometry": "center"
      },
      "geometry": {
        "type": "Point",
        "coordinates": [
          -73.4664897,
          45.467688
        ]
      },
      "id": "way/34931956"
    },
    {
      "type": "Feature",
      "properties": {
        "@id": "way/52555409",
        "building": "yes",
        "name": "Archambault",
        "shop": "books",
        "@geometry": "center"
      },
      "geometry": {
        "type": "Point",
        "coordinates": [
          -73.7806173,
          45.5256468
        ]
      },
      "id": "way/52555409"
    },
    {
      "type": "Feature",
      "properties": {
        "@id": "way/264799764",
        "addr:city": "Montréal",
        "addr:housenumber": "1691",
        "addr:postcode": "H2C 1T1",
        "addr:street": "Rue Fleury Est",
        "building": "yes",
        "name": "Renaud-Bray",
        "opening_hours": "Mo-Su 9:00-21:00",
        "phone": "(514) 384-9920",
        "shop": "books",
        "website": "http://www.renaud-bray.com/informations_boutiques.aspx",
        "wheelchair": "yes",
        "@geometry": "center"
      },
      "geometry": {
        "type": "Point",
        "coordinates": [
          -73.6550268,
          45.5659956
        ]
      },
      "id": "way/264799764"
    },
    {
      "type": "Feature",
      "properties": {
        "@id": "node/340242747",
        "addr:city": "Montréal",
        "addr:housenumber": "125",
        "addr:province": "Québec",
        "addr:street": "Rue Saint-Viateur Ouest",
        "name": "Le Phillies Cheesesteak",
        "shop": "books"
      },
      "geometry": {
        "type": "Point",
        "coordinates": [
          -73.6005318,
          45.5241896
        ]
      },
      "id": "node/340242747"
    },
    {
      "type": "Feature",
      "properties": {
        "@id": "node/420041497",
        "name": "Coop ÉTS",
        "shop": "books",
        "wheelchair": "yes"
      },
      "geometry": {
        "type": "Point",
        "coordinates": [
          -73.5635404,
          45.4952364
        ]
      },
      "id": "node/420041497"
    },
    {
      "type": "Feature",
      "properties": {
        "@id": "node/460953081",
        "name": "Archambault",
        "shop": "books"
      },
      "geometry": {
        "type": "Point",
        "coordinates": [
          -73.5592838,
          45.5146297
        ]
      },
      "id": "node/460953081"
    },
    {
      "type": "Feature",
      "properties": {
        "@id": "node/461832936",
        "name": "Marché du Livre",
        "shop": "books"
      },
      "geometry": {
        "type": "Point",
        "coordinates": [
          -73.5603689,
          45.5162108
        ]
      },
      "id": "node/461832936"
    },
    {
      "type": "Feature",
      "properties": {
        "@id": "node/486752809",
        "addr:housenumber": "1844",
        "addr:street": "Rue Sainte-Catherine Ouest",
        "name": "Librairie Astro",
        "name:en": "Astro Books",
        "shop": "books",
        "wheelchair": "no"
      },
      "geometry": {
        "type": "Point",
        "coordinates": [
          -73.5797031,
          45.4932392
        ]
      },
      "id": "node/486752809"
    },
    {
      "type": "Feature",
      "properties": {
        "@id": "node/932462325",
        "name": "Librairie du CCA",
        "name:en": "CCA Bookstore",
        "shop": "books",
        "website": "http://www.cca.qc.ca/fr/librairie",
        "wheelchair": "yes"
      },
      "geometry": {
        "type": "Point",
        "coordinates": [
          -73.5790476,
          45.4908285
        ]
      },
      "id": "node/932462325"
    },
    {
      "type": "Feature",
      "properties": {
        "@id": "node/933975348",
        "addr:city": "Montreal",
        "addr:housenumber": "4176",
        "addr:postcode": "H2W 2M5",
        "addr:street": "Rue Saint-Denis",
        "name": "Ulysse",
        "name:en": "Ulysses",
        "shop": "books",
        "website": "http://www.ulyssesguides.com"
      },
      "geometry": {
        "type": "Point",
        "coordinates": [
          -73.5779804,
          45.5215472
        ]
      },
      "id": "node/933975348"
    },
    {
      "type": "Feature",
      "properties": {
        "@id": "node/1271672579",
        "name": "Indigo",
        "shop": "books",
        "wheelchair": "yes"
      },
      "geometry": {
        "type": "Point",
        "coordinates": [
          -73.5714911,
          45.5017422
        ]
      },
      "id": "node/1271672579"
    },
    {
      "type": "Feature",
      "properties": {
        "@id": "node/1433206451",
        "addr:country": "CA",
        "name": "Librairie Monet",
        "shop": "books"
      },
      "geometry": {
        "type": "Point",
        "coordinates": [
          -73.6980434,
          45.5362186
        ]
      },
      "id": "node/1433206451"
    },
    {
      "type": "Feature",
      "properties": {
        "@id": "node/1456308079",
        "name": "Multimags",
        "opening_hours": "Mo-Sa 08:00-21:00, Su 09:00-20:00",
        "shop": "books"
      },
      "geometry": {
        "type": "Point",
        "coordinates": [
          -73.5810679,
          45.5262668
        ]
      },
      "id": "node/1456308079"
    },
    {
      "type": "Feature",
      "properties": {
        "@id": "node/1457943870",
        "name": "Renaud-Bray",
        "shop": "books",
        "wheelchair": "yes"
      },
      "geometry": {
        "type": "Point",
        "coordinates": [
          -73.5961409,
          45.5199626
        ]
      },
      "id": "node/1457943870"
    },
    {
      "type": "Feature",
      "properties": {
        "@id": "node/1458149751",
        "addr:city": "Montréal",
        "addr:country": "CA",
        "addr:housenumber": "5252",
        "addr:postcode": "H3T 1X8",
        "addr:street": "Chemin de la Côte-Des-Neiges",
        "name": "Renaud-Bray",
        "shop": "books"
      },
      "geometry": {
        "type": "Point",
        "coordinates": [
          -73.6216176,
          45.495824
        ]
      },
      "id": "node/1458149751"
    },
    {
      "type": "Feature",
      "properties": {
        "@id": "node/1461343407",
        "shop": "books",
        "wheelchair": "limited"
      },
      "geometry": {
        "type": "Point",
        "coordinates": [
          -73.5818054,
          45.5254518
        ]
      },
      "id": "node/1461343407"
    },
    {
      "type": "Feature",
      "properties": {
        "@id": "node/1461345460",
        "name": "Renaud-Bray",
        "shop": "books"
      },
      "geometry": {
        "type": "Point",
        "coordinates": [
          -73.5810859,
          45.5229459
        ]
      },
      "id": "node/1461345460"
    },
    {
      "type": "Feature",
      "properties": {
        "@id": "node/1462039953",
        "addr:housenumber": "469",
        "addr:street": "Rue Milton",
        "name": "The Word Bookstore",
        "shop": "books",
        "wheelchair": "no"
      },
      "geometry": {
        "type": "Point",
        "coordinates": [
          -73.5750501,
          45.5079872
        ]
      },
      "id": "node/1462039953"
    },
    {
      "type": "Feature",
      "properties": {
        "@id": "node/1546480838",
        "addr:housenumber": "6255",
        "name": "Librairie Renaud-Bray",
        "phone": "514-288-0952",
        "shop": "books"
      },
      "geometry": {
        "type": "Point",
        "coordinates": [
          -73.6008038,
          45.535179
        ]
      },
      "id": "node/1546480838"
    },
    {
      "type": "Feature",
      "properties": {
        "@id": "node/1963987522",
        "name": "Indigo Books & Music",
        "shop": "books"
      },
      "geometry": {
        "type": "Point",
        "coordinates": [
          -73.7275947,
          45.5557003
        ]
      },
      "id": "node/1963987522"
    },
    {
      "type": "Feature",
      "properties": {
        "@id": "node/2047449790",
        "addr:housename": "Le port de tête",
        "addr:housenumber": "262",
        "addr:postcode": "H2T 1P5",
        "addr:street": "Mont Royal Est",
        "email": "portdetete@videotron.ca",
        "name": "Le port de tête",
        "opening_hours": "Mo-Sa 10:00-22:00, Su 10:00-20:00",
        "phone": "514-678-9566",
        "shop": "books",
        "website": "https://leportdetete.leslibraires.ca/",
        "wheelchair": "no"
      },
      "geometry": {
        "type": "Point",
        "coordinates": [
          -73.5840004,
          45.5225766
        ]
      },
      "id": "node/2047449790"
    },
    {
      "type": "Feature",
      "properties": {
        "@id": "node/2084767659",
        "addr:housenumber": "263",
        "addr:postcode": "H2T 1P6",
        "addr:province": "QC",
        "addr:street": "Avenue du Mont-Royal Est",
        "addr:suburb": "Le Plateau-Mont-Royal",
        "amenity": "cafe",
        "cuisine": "coffee_shop",
        "description": "Expansion store\nUnité d'expansion",
        "internet_access": "wlan",
        "internet_access:fee": "no",
        "internet_access:operator": "Île Sans Fil",
        "name": "Le port de tête",
        "opening_hours": "Mo-Sa 10:00-22:00; Su 10:00-20:00",
        "phone": "514-678-9566",
        "shop": "books",
        "website": "https://leportdetete.leslibraires.ca"
      },
      "geometry": {
        "type": "Point",
        "coordinates": [
          -73.584173,
          45.522648
        ]
      },
      "id": "node/2084767659"
    },
    {
      "type": "Feature",
      "properties": {
        "@id": "node/2121572087",
        "addr:housenumber": "4954",
        "addr:postcode": "H3X 2H7",
        "addr:street": "Boulevard Décarie",
        "name": "Librăria Pagini Româneşti",
        "shop": "books",
        "source": "Bing",
        "website": "http://www.librariaromanilor.com/"
      },
      "geometry": {
        "type": "Point",
        "coordinates": [
          -73.627815,
          45.4827188
        ]
      },
      "id": "node/2121572087"
    },
    {
      "type": "Feature",
      "properties": {
        "@id": "node/2147146575",
        "name": "Champlain College Bookstore",
        "shop": "books"
      },
      "geometry": {
        "type": "Point",
        "coordinates": [
          -73.5205398,
          45.5165836
        ]
      },
      "id": "node/2147146575"
    },
    {
      "type": "Feature",
      "properties": {
        "@id": "node/2172009083",
        "name": "Crossover Comics",
        "shop": "books"
      },
      "geometry": {
        "type": "Point",
        "coordinates": [
          -73.5801882,
          45.4799156
        ]
      },
      "id": "node/2172009083"
    },
    {
      "type": "Feature",
      "properties": {
        "@id": "node/2422279662",
        "addr:city": "Montréal",
        "addr:housenumber": "1339",
        "addr:street": "Ontario",
        "name": "Le chercheur de trésor",
        "shop": "books",
        "source": "local_knowledge"
      },
      "geometry": {
        "type": "Point",
        "coordinates": [
          -73.5615587,
          45.522787
        ]
      },
      "id": "node/2422279662"
    },
    {
      "type": "Feature",
      "properties": {
        "@id": "node/2433948969",
        "name": "Librairie sciences sociales",
        "operator": "Université de Montréal",
        "shop": "books"
      },
      "geometry": {
        "type": "Point",
        "coordinates": [
          -73.6185362,
          45.4986625
        ]
      },
      "id": "node/2433948969"
    },
    {
      "type": "Feature",
      "properties": {
        "@id": "node/2433948970",
        "level": "3",
        "name": "Librairie scientifique et médicale",
        "operator": "Université de Montréal",
        "shop": "books"
      },
      "geometry": {
        "type": "Point",
        "coordinates": [
          -73.614876,
          45.5027821
        ]
      },
      "id": "node/2433948970"
    },
    {
      "type": "Feature",
      "properties": {
        "@id": "node/2459774504",
        "addr:city": "Montréal",
        "addr:housenumber": "5606",
        "addr:street": "Avenue Monkland",
        "name": "Kidlink",
        "shop": "books"
      },
      "geometry": {
        "type": "Point",
        "coordinates": [
          -73.6228212,
          45.4753884
        ]
      },
      "id": "node/2459774504"
    },
    {
      "type": "Feature",
      "properties": {
        "@id": "node/2478495487",
        "addr:city": "Montréal",
        "addr:housenumber": "2",
        "addr:postcode": "H2X 1K4",
        "addr:street": "Rue Sainte-Catherine Est",
        "name": "Formats",
        "opening_hours": "Tu 11:00-17:00; We-Fr 11:00-20:00; Sa 12:00-17:00; Su-Mo off",
        "phone": "+1 514 842 5579",
        "shop": "books",
        "website": "http://www.librairieformats.org/"
      },
      "geometry": {
        "type": "Point",
        "coordinates": [
          -73.5634785,
          45.5100737
        ]
      },
      "id": "node/2478495487"
    },
    {
      "type": "Feature",
      "properties": {
        "@id": "node/2496678398",
        "name": "CLC Librairie chétienne",
        "shop": "books"
      },
      "geometry": {
        "type": "Point",
        "coordinates": [
          -73.5667105,
          45.4645342
        ]
      },
      "id": "node/2496678398"
    },
    {
      "type": "Feature",
      "properties": {
        "@id": "node/2503429180",
        "addr:housenumber": "5219",
        "addr:postcode": "H3T 1Y1",
        "addr:province": "QC",
        "addr:street": "Chemin de la Côte Des Neiges",
        "addr:suburb": "Côte-des-Neiges–NDG",
        "fax": "+1 514 739 3630",
        "internet_access": "wlan",
        "internet_access:fee": "no",
        "name": "Olivieri Librairie & Bistro",
        "phone": "+1 514 739 3303",
        "shop": "books",
        "website": "www.librairieolivieri.com"
      },
      "geometry": {
        "type": "Point",
        "coordinates": [
          -73.6207628,
          45.495833
        ]
      },
      "id": "node/2503429180"
    },
    {
      "type": "Feature",
      "properties": {
        "@id": "node/2505201231",
        "addr:city": "Montréal",
        "addr:housename": "AEELI",
        "addr:housenumber": "2033",
        "addr:postcode": "H2X 2T3",
        "addr:street": "Rue Saint-Laurent",
        "books": "anarchism",
        "contact:email": "librairie_insoumise@yahoo.ca",
        "image": "https://commons.wikimedia.org/wiki/File:L%27Insoumise_Montreal.jpg",
        "name": "Librairie L'Insoumise",
        "opening_hours": "Tu-We 12:00-18:00; Th-Fr 12:00-20:00; Sa-Su 13:00-17:00",
        "operator": "independent",
        "operator:type": "community",
        "phone": "+1 514 3133489",
        "second_hand": "yes",
        "shop": "books",
        "start_date": "2004-11-13",
        "website": "https://insoumise.wordpress.com",
        "wheelchair": "no",
        "wikidata": "Q3237901",
        "wikipedia": "fr:L'Insoumise (librairie)"
      },
      "geometry": {
        "type": "Point",
        "coordinates": [
          -73.5674518,
          45.5116939
        ]
      },
      "id": "node/2505201231"
    },
    {
      "type": "Feature",
      "properties": {
        "@id": "node/2519344602",
        "shop": "books"
      },
      "geometry": {
        "type": "Point",
        "coordinates": [
          -73.5816908,
          45.4915205
        ]
      },
      "id": "node/2519344602"
    },
    {
      "type": "Feature",
      "properties": {
        "@id": "node/2628117892",
        "name": "Archambault",
        "shop": "books"
      },
      "geometry": {
        "type": "Point",
        "coordinates": [
          -73.4036195,
          45.5712063
        ]
      },
      "id": "node/2628117892"
    },
    {
      "type": "Feature",
      "properties": {
        "@id": "node/2704382357",
        "addr:city": "Montreal",
        "addr:housenumber": "211",
        "addr:street": "Rue Bernard Ouest",
        "books": "comic",
        "name": "Drawn & Quarterly",
        "opening_hours": "Mo-We 11:00-19:00; Th,Fr 11:00-21:00; Sa,Su 10:00-19:00",
        "phone": "+1-514-279-2224",
        "shop": "books",
        "website": "http://211blog.drawnandquarterly.com/"
      },
      "geometry": {
        "type": "Point",
        "coordinates": [
          -73.6047927,
          45.5247765
        ]
      },
      "id": "node/2704382357"
    },
    {
      "type": "Feature",
      "properties": {
        "@id": "node/2863410287",
        "name": "Bibliophile",
        "shop": "books",
        "website": "http://www.bibliophilemontreal.com/"
      },
      "geometry": {
        "type": "Point",
        "coordinates": [
          -73.6315049,
          45.4812992
        ]
      },
      "id": "node/2863410287"
    },
    {
      "type": "Feature",
      "properties": {
        "@id": "node/3261054610",
        "addr:city": "Montréal",
        "addr:housenumber": "3547",
        "addr:postcode": "H3T1P5",
        "addr:province": "Québec",
        "addr:street": "Avenue Swail",
        "name": "Le Livre Voyageur",
        "operator": "Independant",
        "shop": "books",
        "website": "https://www.facebook.com/pages/Librairie-Le-livre-voyageur/169468926550591"
      },
      "geometry": {
        "type": "Point",
        "coordinates": [
          -73.6200811,
          45.4957641
        ]
      },
      "id": "node/3261054610"
    },
    {
      "type": "Feature",
      "properties": {
        "@id": "node/3312065361",
        "addr:city": "Montréal",
        "addr:housenumber": "420",
        "addr:postcode": "H2R 1H2",
        "addr:province": "Québec",
        "addr:street": "Rue Villeray",
        "name": "L'Écume des jours",
        "shop": "books"
      },
      "geometry": {
        "type": "Point",
        "coordinates": [
          -73.6225216,
          45.5415541
        ]
      },
      "id": "node/3312065361"
    },
    {
      "type": "Feature",
      "properties": {
        "@id": "node/3583635757",
        "name": "Loyola Campus Bookstore",
        "opening_hours": "09H00 - 17H00",
        "operator": "Concordia University",
        "shop": "books"
      },
      "geometry": {
        "type": "Point",
        "coordinates": [
          -73.6404965,
          45.4577238
        ]
      },
      "id": "node/3583635757"
    },
    {
      "type": "Feature",
      "properties": {
        "@id": "node/3626124906",
        "addr:city": "Montréal",
        "addr:housenumber": "226",
        "addr:postcode": "H2S 1L1",
        "addr:province": "QC",
        "addr:street": "Rue Saint-Zotique Est",
        "name": "Romans Savons Librairie",
        "phone": "514-277-2935",
        "shop": "books",
        "website": "www.romansavons.com"
      },
      "geometry": {
        "type": "Point",
        "coordinates": [
          -73.6100823,
          45.5338079
        ]
      },
      "id": "node/3626124906"
    },
    {
      "type": "Feature",
      "properties": {
        "@id": "node/3748071091",
        "addr:city": "Montréal",
        "addr:housenumber": "262",
        "addr:postcode": "H2X 1L4",
        "addr:street": "Rue Sainte-Catherine Est",
        "shop": "books"
      },
      "geometry": {
        "type": "Point",
        "coordinates": [
          -73.5615081,
          45.5123386
        ]
      },
      "id": "node/3748071091"
    },
    {
      "type": "Feature",
      "properties": {
        "@id": "node/3750083853",
        "addr:city": "Montréal",
        "addr:housenumber": "277",
        "addr:postcode": "H2X 1L5",
        "addr:street": "Rue Sainte-Catherine Est",
        "name": "Volume",
        "shop": "books",
        "website": "http://www.monvolume.com/"
      },
      "geometry": {
        "type": "Point",
        "coordinates": [
          -73.5616057,
          45.5126229
        ]
      },
      "id": "node/3750083853"
    },
    {
      "type": "Feature",
      "properties": {
        "@id": "node/3755863462",
        "shop": "books"
      },
      "geometry": {
        "type": "Point",
        "coordinates": [
          -73.7420077,
          45.5417818
        ]
      },
      "id": "node/3755863462"
    },
    {
      "type": "Feature",
      "properties": {
        "@id": "node/3777102661",
        "addr:city": "Montréal",
        "addr:housenumber": "551",
        "addr:postcode": "H2L 1N8",
        "addr:street": "Rue Ontario Est",
        "books": "maps",
        "level": "0",
        "name": "Aux quatre points cardinaux",
        "note": "mostly oriented towards maps and geography, a major reference in montreal. one of the few points where topographic maps are sold in montreal.",
        "opening_hours": "Mo-We 10:00-18:00; Th-Fr 10:00-21:00; Sa 10:00-17:00; Su off",
        "phone": "514-843-8116",
        "shop": "books",
        "source": "survey, receipt",
        "website": "https://aqpc.com"
      },
      "geometry": {
        "type": "Point",
        "coordinates": [
          -73.5644591,
          45.5178586
        ]
      },
      "id": "node/3777102661"
    },
    {
      "type": "Feature",
      "properties": {
        "@id": "node/4359234991",
        "name": "Librairie Millenium",
        "shop": "books"
      },
      "geometry": {
        "type": "Point",
        "coordinates": [
          -73.580088,
          45.5235634
        ]
      },
      "id": "node/4359234991"
    },
    {
      "type": "Feature",
      "properties": {
        "@id": "node/4640453298",
        "books": "comic",
        "name": "La Boîte à B.D. de Laval",
        "shop": "books"
      },
      "geometry": {
        "type": "Point",
        "coordinates": [
          -73.7960916,
          45.5792483
        ]
      },
      "id": "node/4640453298"
    },
    {
      "type": "Feature",
      "properties": {
        "@id": "node/4654243034",
        "name": "Le James McGill Bookstore",
        "shop": "books"
      },
      "geometry": {
        "type": "Point",
        "coordinates": [
          -73.5733734,
          45.5047538
        ]
      },
      "id": "node/4654243034"
    },
    {
      "type": "Feature",
      "properties": {
        "@id": "node/4852683788",
        "name": "L'Euguélionne",
        "opening_hours": "Mon off; Tu 10:00-18:00; We 10:00-20:00; Th-Fr 10:00-21:00; Sa-Su 11:00-18:00",
        "shop": "books"
      },
      "geometry": {
        "type": "Point",
        "coordinates": [
          -73.5563723,
          45.5189691
        ]
      },
      "id": "node/4852683788"
    },
    {
      "type": "Feature",
      "properties": {
        "@id": "node/4853985622",
        "addr:housenumber": "3770",
        "addr:street": "Rue Saint-Denis",
        "name": "Beatnick records",
        "name:en": "Beatnick records",
        "name:fr": "Beatnick records",
        "shop": "books"
      },
      "geometry": {
        "type": "Point",
        "coordinates": [
          -73.5721373,
          45.5189808
        ]
      },
      "id": "node/4853985622"
    },
    {
      "type": "Feature",
      "properties": {
        "@id": "node/5086630021",
        "name": "Multimags",
        "name:fr": "Multimags",
        "shop": "books"
      },
      "geometry": {
        "type": "Point",
        "coordinates": [
          -73.6146475,
          45.5331008
        ]
      },
      "id": "node/5086630021"
    },
    {
      "type": "Feature",
      "properties": {
        "@id": "node/5111342319",
        "addr:city": "Montréal",
        "addr:housenumber": "3420",
        "addr:province": "QC",
        "addr:street": "Rue Ontario Est",
        "books": "comic",
        "name": "Librairie Z",
        "opening_hours": "Mo 12:00-17:00; Tu 12:00-18:00; We 12:00-19:00; Th-Fr 12:00-21:00; Sa 12:00-18:00; Su 12:00-17:00; ",
        "payment:debit_cards": "yes",
        "payment:mastercard": "yes",
        "payment:visa": "yes",
        "shop": "books",
        "website": "http://www.librairiez.com/"
      },
      "geometry": {
        "type": "Point",
        "coordinates": [
          -73.545748,
          45.5432329
        ]
      },
      "id": "node/5111342319"
    },
    {
      "type": "Feature",
      "properties": {
        "@id": "node/5111364465",
        "addr:city": "Montréal",
        "addr:housenumber": "3615",
        "addr:postcode": "H1W 1R8",
        "addr:province": "QC",
        "addr:street": "Rue Ontario Est",
        "name": "Librairie du Vieux Bouc",
        "opening_hours": "Mo-We 11:00-18:00; Th-Fr 11:00-19:00; Sa-Su 11:00-17:00",
        "shop": "books"
      },
      "geometry": {
        "type": "Point",
        "coordinates": [
          -73.5448256,
          45.5453774
        ]
      },
      "id": "node/5111364465"
    },
    {
      "type": "Feature",
      "properties": {
        "@id": "node/5111364601",
        "addr:housenumber": "2011",
        "books": "children",
        "name": "Bric-à-brac - Librairie jeunesse",
        "shop": "books"
      },
      "geometry": {
        "type": "Point",
        "coordinates": [
          -73.5457022,
          45.5445322
        ]
      },
      "id": "node/5111364601"
    }
  ]
}